GLOBALSTAR M094 [+]     
1 39074U 13005C   23296.50722695 -.00000097  00000+0  39263-4 0  9993
2 39074  51.9954 217.1006 0000907  59.9433 300.1523 12.62268750496264
GLOBALSTAR M096 [+]     
1 39075U 13005D   23296.20363995 -.00000076  00000+0  15290-3 0  9995
2 39075  52.0067 266.0682 0000786  45.4231 314.6700 12.62265154495144
GLOBALSTAR M078 [+]     
1 39076U 13005E   23296.88970720 -.00000018  00000+0  47879-3 0  9994
2 39076  51.9894 349.3084 0000553 291.9020  68.1788 12.62261374493851
GLOBALSTAR M095 [+]     
1 39077U 13005F   23296.44126303 -.00000076  00000+0  15636-3 0  9997
2 39077  51.9823 348.1721 0000465 357.5881   2.4983 12.62269813493657
GLOBALSTAR M087 [+]     
1 52888U 22064A   23296.78749024 -.00000077  00000+0  97064-4 0  9992
2 52888  51.9763 316.1717 0009831 120.6239 239.5632 13.37555841 65759
